APRIZESAT 2             
1 28366U 04025A   26199.24792882  .00000084  00000+0  39072-4 0  9991
2 28366  98.1045   3.4743 0106126 155.6863 204.9385 14.38048428156101
SAUDICOMSAT 1           
1 28369U 04025D   26199.02050434  .00000124  00000+0  39886-4 0  9998
2 28369  98.5778 209.9851 0030919 289.9264  69.8603 14.55494652168619
SAUDICOMSAT 2           
1 28370U 04025E   26199.45402350  .00000084  00000+0  33767-4 0  9992
2 28370  98.6643 212.5844 0055837 163.8369 196.4622 14.49995287164636
APRIZESAT 1             
1 28372U 04025G   26199.30909818  .00000098  00000+0  36109-4 0  9997
2 28372  98.6310 210.8822 0045694  61.4578 299.1205 14.51793022166424
NANOSAT-1               
1 28493U 04049B   26199.60297521  .00000427  00000+0  63426-4 0  9999
2 28493  98.2315 337.0397 0004056 173.2408 186.8859 14.80214205160096
SAUDICOMSAT 7           
1 31119U 07012C   26199.16554796  .00000238  00000+0  51756-4 0  9995
2 31119  98.3801 173.9349 0057027  99.1935 261.5725 14.66138317 26971
SAUDICOMSAT 6           
1 31121U 07012E   26199.35500793  .00000151  00000+0  38974-4 0  9998
2 31121  98.4120 167.4560 0070649 229.0916 130.4153 14.62585933 24748
SAUDICOMSAT 5           
1 31124U 07012H   26199.64077586  .00000268  00000+0  55035-4 0  9998
2 31124  98.3513 175.1609 0048020  28.1742 332.2045 14.68194416 28215
SAUDICOMSAT 3           
1 31125U 07012J   26198.86635843  .00000325  00000+0  61523-4 0  9991
2 31125  98.3166 174.9168 0038096 316.6201  43.2008 14.70751822 29339
SAUDICOMSAT 4           
1 31127U 07012L   26199.37796782  .00000188  00000+0  44160-4 0  9995
2 31127  98.4006 172.5884 0063797 159.8355 200.5389 14.64536901 25852
APRIZESAT 4             
1 35684U 09041D   26199.20785920  .00000320  00000+0  44960-4 0  9991
2 35684  98.1401 275.1453 0042425 219.5290 140.2827 14.83916132915965
APRIZESAT 3             
1 35686U 09041F   26199.39547456  .00000335  00000+0  34575-4 0  9990
2 35686  98.2106 354.1225 0060719 325.2284  34.4974 14.96315172921043
S-NET D                 
1 43186U 18014G   26199.53347604  .00002346  00000+0  12236-3 0  9996
2 43186  97.5324 104.1293 0006227 270.2085  89.8435 15.16934469463519
S-NET B                 
1 43187U 18014H   26199.54554731  .00002476  00000+0  12906-3 0  9997
2 43187  97.5330 104.1289 0006846 264.1964  95.8489 15.16903993463511
S-NET A                 
1 43188U 18014J   26199.59814477  .00002311  00000+0  12058-3 0  9995
2 43188  97.5339 104.3960 0006755 264.8979  95.1483 15.16943103463526
S-NET C                 
1 43189U 18014K   26199.61555933  .00002450  00000+0  12776-3 0  9999
2 43189  97.5357 104.4927 0008125 255.8443 104.1887 15.16895365462074
SALSAT                  
1 46495U 20068K   26199.01462697  .00004061  00000+0  14177-3 0  9999
2 46495  97.8861 203.9671 0009495 182.8082 177.3106 15.30195257320078
OOV-CUBE (TUBSAT-30)    
1 60240U 24128F   26199.32762964  .00000912  00000+0  82295-4 0  9996
2 60240  61.9941 116.9785 0040721 140.6907 219.7153 15.02880941110796
LPNTSAT-001 (IOD-1)     
1 68408U 26065A   26198.91401277  .00001297  00000+0  65700-4 0  9992
2 68408  97.3976  78.7699 0014642 255.8126 104.1482 15.18676475 16929
CHUANG XIN 26 (CX-26)   
1 69972U 26158A   26199.63330041 -.00000027  00000+0  56359-4 0  9993
2 69972  49.9834 265.9089 0004914 311.3503  48.6987 14.25123885  1197
